{
  "type": "FeatureCollection",
  "features": [
    {
      "type": "Feature",
      "geometry": {
        "type": "Polygon",
        "coordinates": [
          [
            [
              110.37165694923937,
              -7.803674062184115
            ],
            [
              110.37167641632129,
              -7.803799426368343
            ],
            [
              110.371728328541,
              -7.8038251420937
            ],
            [
              110.37174779562463,
              -7.803735137047255
            ],
            [
              110.37165694923937,
              -7.803674062184115
            ]
          ]
        ]
      },
      "properties": {
        "name": "obs",
        "featureId": "fid-1787275818980-16"
      }
    }
  ]
}